SAUDISAT 1C             
1 27607U 02058C   23251.08363470  .00002260  00000+0  32585-3 0  9996
2 27607  64.5574  10.7390 0060317 207.3041 152.4889 14.77573192114682
SAUDISAT 2              
1 28371U 04025F   23250.70279725  .00000430  00000+0  11055-3 0  9994
2 28371  98.4410 215.1198 0025587 167.1270 193.0585 14.55024514 18277
SAUDISAT 3              
1 31118U 07012B   23251.13642140  .00000482  00000+0  88820-4 0  9991
2 31118  98.0180 193.8983 0014292 206.1291 153.9195 14.69779054878909
PISAT                   
1 41784U 16059B   23250.71280976  .00001031  00000+0  20010-3 0  9997
2 41784  97.8652 280.4612 0030929 190.7814 169.2731 14.64896204371148
FLYING LAPTOP           
1 42831U 17042G   23251.04835393  .00001409  00000+0  13915-3 0  9995
2 42831  97.3891  83.8019 0012277 313.5324  46.4876 14.93367118334857
SALSAT                  
1 46495U 20068K   23251.05677724  .00005271  00000+0  34100-3 0  9990
2 46495  97.7756 200.0079 0014717 190.6606 169.4312 15.08544630161568
